O3B FM5                 
1 39188U 13031A   22205.45692294 -.00000025  00000+0  00000+0 0  9995
2 39188   0.0517  24.6172 0002569  99.4672 235.9377  5.00115312165810
O3B FM4                 
1 39189U 13031B   22205.31311720 -.00000025  00000+0  00000+0 0  9993
2 39189   0.0570 355.3532 0002512 127.8423 236.8263  5.00115784165820
O3B FM2                 
1 39190U 13031C   22205.39236688 -.00000025  00000+0  00000+0 0  9992
2 39190   0.0602 351.3685 0001085 118.4267 250.2142  4.99476849165880
O3B PFM                 
1 39191U 13031D   22205.43081696 -.00000025  00000+0  00000+0 0  9995
2 39191   0.0504  14.5784 0002653 107.9138 237.5311  5.00115732165433
O3B FM3                 
1 40079U 14038A   22205.28566660 -.00000025  00000+0  00000+0 0  9992
2 40079   0.0547   2.9919 0005061 117.9962 239.0594  5.00115437141818
O3B FM7                 
1 40080U 14038B   22205.23173895 -.00000025  00000+0  00000+0 0  9993
2 40080   0.0588   1.2005 0000942 151.9167 206.8853  5.00115478146631
O3B FM6                 
1 40081U 14038C   22205.45800303 -.00000025  00000+0  00000+0 0  9999
2 40081   0.0542   1.9544 0002689 121.8580 236.2109  5.00115473146605
O3B FM8                 
1 40082U 14038D   22205.31206831 -.00000025  00000+0  00000+0 0  9991
2 40082   0.0543 358.6558 0002697 121.4848 239.8838  5.00115676146711
O3B FM10                
1 40348U 14083A   22205.33806820 -.00000025  00000+0  00000+0 0  9992
2 40348   0.0479   9.3697 0002633 113.3913 237.2621  5.00115178138665
O3B FM11                
1 40349U 14083B   22205.15165976 -.00000025  00000+0  00000+0 0  9993
2 40349   0.0522  11.6185 0002203 124.3668 224.0299  5.00115430138672
O3B FM12                
1 40350U 14083C   22205.37874429 -.00000025  00000+0  00000+0 0  9999
2 40350   0.0519  10.5247 0002677 115.8455 233.6521  5.00115289138699
O3B FM9                 
1 40351U 14083D   22204.60613398 -.00000025  00000+0  00000+0 0  9991
2 40351   0.0530  12.4336 0002583 110.3038 237.2851  5.00115601138803
DIAMOND RED             
1 42783U 17036U   22205.39268361  .00007432  00000+0  27409-3 0  9990
2 42783  97.1977 244.9256 0010163 188.4207 171.6864 15.28023593282585
DIAMOND GREEN           
1 42785U 17036W   22205.06454191  .00008268  00000+0  30523-3 0  9993
2 42785  97.1979 244.6728 0009921 190.4963 169.6072 15.27958118282602
DIAMOND BLUE            
1 42786U 17036X   22205.06370737  .00007931  00000+0  29277-3 0  9997
2 42786  97.1980 244.6639 0009952 191.3104 168.7914 15.27972495282606
LEO VANTAGE 1           
1 43113U 18004C   22205.51462525  .00002018  00000+0  16585-3 0  9994
2 43113  99.2464 289.4863 0402109  80.0461 284.5859 14.53972096229621
O3B FM15                
1 43231U 18024A   22205.47165756 -.00000025  00000+0  00000+0 0  9996
2 43231   0.0446   7.9606 0002879 117.7093 234.3546  5.00116034 79790
O3B FM16                
1 43232U 18024B   22205.52503231 -.00000025  00000+0  00000+0 0  9997
2 43232   0.0405   7.3688 0002842 118.7549 233.9003  5.00115927 79712
O3B FM14                
1 43233U 18024C   22204.96493207 -.00000025  00000+0  00000+0 0  9996
2 43233   0.0391   6.1701 0002652 120.1680 233.6840  5.00115346 79702
O3B FM13                
1 43234U 18024D   22200.22168240 -.00000025  00000+0  00000+0 0  9998
2 43234   0.0450  46.1600 0025751  56.6065 257.5179  5.01658775 79581
O3B FM20                
1 44112U 19020A   22205.39144235 -.00000025  00000+0  00000+0 0  9992
2 44112   0.0480   8.5206 0002863 124.6165 226.8845  5.00115477 60349
O3B FM19                
1 44113U 19020B   22198.02223948 -.00000025  00000+0  00000+0 0  9993
2 44113   0.0499  34.0008 0002640  92.1302 233.8895  5.00115131 59842
O3B FM17                
1 44114U 19020C   22205.49876375 -.00000025  00000+0  00000+0 0  9992
2 44114   0.0445 344.1455 0002976 142.7533 233.1262  5.00115580 60295
O3B FM18                
1 44115U 19020D   22205.44530422 -.00000025  00000+0  00000+0 0  9998
2 44115   0.0481   8.9899 0002881 114.0502 236.9852  5.00115776 60413
SALSAT                  
1 46495U 20068K   22205.40622451  .00001277  00000+0  95119-4 0  9994
2 46495  97.7289 146.7236 0017200 147.9734 212.2541 15.04644608 99740
